{
  "norad_id": 63354,
  "name": "LEMUR-2-THERMORAPTOR",
  "history": [
    {
      "epoch": "2026-03-28T21:26:11.249664",
      "apogee_km": 539.1848525730047,
      "perigee_km": 512.2846067655219,
      "latitude_deg": -77.09396091821749,
      "longitude_deg": -118.8541670399718,
      "semi_major_axis_km": 6903.871729669263,
      "eccentricity": 0.0019482,
      "inclination_deg": 97.5635,
      "raan_deg": 64.4746,
      "arg_perigee_deg": 167.6661,
      "mean_anomaly_deg": 192.5051,
      "mean_motion_rev_day": 15.13434714
    }
  ]
}